start=new Date('2022-01-25T00:00:00.000Z').valueOf();
sats=[{"RCS_SIZE":"LARGE","GP_ID":"194571000","REV_AT_EPOCH":"5398","REF_FRAME":"TEME","CENTER_NAME":"EARTH","BSTAR":"0.00012477000000","TIME_SYSTEM":"UTC","FILE":"3282614","TLE_LINE2":"2 47580  53.0557 296.8415 0001911  58.9129 301.2047 15.06406031 53980","ELEMENT_SET_NO":"999","CLASSIFICATION_TYPE":"U","EPHEMERIS_TYPE":"0","OBJECT_NAME":"STARLINK-1982","DECAY_DATE":null,"ARG_OF_PERICENTER":"58.9129","PERIOD":"95.592","OBJECT_ID":"2021-009AJ","PERIAPSIS":"545.872","MEAN_ELEMENT_THEORY":"SGP4","NORAD_CAT_ID":"47580","SITE":"AFETR","TLE_LINE1":"1 47580U 21009AJ  22024.90778981  .00001578  00000-0  12477-3 0  9990","OBJECT_TYPE":"PAYLOAD","SEMIMAJOR_AXIS":"6925.330","LAUNCH_DATE":"2021-02-04","MEAN_MOTION_DOT":"0.00001578","EPOCH":"2022-01-24T21:47:13.039584","MEAN_MOTION":"15.06406031","ECCENTRICITY":"0.00019110","INCLINATION":"53.0557","MEAN_ANOMALY":"301.2047","APOAPSIS":"548.519","COUNTRY_CODE":"US","RA_OF_ASC_NODE":"296.8415","MEAN_MOTION_DDOT":"0.0000000000000"},{"MEAN_MOTION_DDOT":"0.0000000000000","COUNTRY_CODE":"US","RA_OF_ASC_NODE":"276.9424","APOAPSIS":"548.460","MEAN_ANOMALY":"290.7059","INCLINATION":"53.0547","ECCENTRICITY":"0.00018120","MEAN_MOTION":"15.06402737","EPOCH":"2022-01-24T21:18:00.971136","MEAN_MOTION_DOT":"-0.00001145","LAUNCH_DATE":"2021-02-04","SEMIMAJOR_AXIS":"6925.340","SITE":"AFETR","TLE_LINE1":"1 47581U 21009AK  22024.88751124 -.00001145  00000-0 -57945-4 0  9990","OBJECT_TYPE":"PAYLOAD","NORAD_CAT_ID":"47581","MEAN_ELEMENT_THEORY":"SGP4","PERIAPSIS":"545.950","OBJECT_ID":"2021-009AK","PERIOD":"95.592","ARG_OF_PERICENTER":"69.4124","DECAY_DATE":null,"OBJECT_NAME":"STARLINK-1984","ELEMENT_SET_NO":"999","EPHEMERIS_TYPE":"0","CLASSIFICATION_TYPE":"U","TLE_LINE2":"2 47581  53.0547 276.9424 0001812  69.4124 290.7059 15.06402737 54267","TIME_SYSTEM":"UTC","FILE":"3282614","REF_FRAME":"TEME","REV_AT_EPOCH":"5426","CENTER_NAME":"EARTH","BSTAR":"-0.00005794500000","GP_ID":"194570255","RCS_SIZE":"LARGE"},{"RCS_SIZE":"LARGE","GP_ID":"194570505","TLE_LINE2":"2 47582  53.0542 296.7099 0001718  59.8290 300.2869 15.06394454 53994","CLASSIFICATION_TYPE":"U","ELEMENT_SET_NO":"999","EPHEMERIS_TYPE":"0","REV_AT_EPOCH":"5399","REF_FRAME":"TEME","BSTAR":"-0.00010274000000","CENTER_NAME":"EARTH","TIME_SYSTEM":"UTC","FILE":"3282614","OBJECT_NAME":"STARLINK-1986","DECAY_DATE":null,"OBJECT_ID":"2021-009AL","PERIAPSIS":"546.041","ARG_OF_PERICENTER":"59.8290","PERIOD":"95.592","NORAD_CAT_ID":"47582","MEAN_ELEMENT_THEORY":"SGP4","SEMIMAJOR_AXIS":"6925.366","LAUNCH_DATE":"2021-02-04","MEAN_MOTION_DOT":"-0.00001811","TLE_LINE1":"1 47582U 21009AL  22024.94095710 -.00001811  00000-0 -10274-3 0  9993","OBJECT_TYPE":"PAYLOAD","SITE":"AFETR","ECCENTRICITY":"0.00017180","MEAN_ANOMALY":"300.2869","INCLINATION":"53.0542","EPOCH":"2022-01-24T22:34:58.693440","MEAN_MOTION":"15.06394454","MEAN_MOTION_DDOT":"0.0000000000000","APOAPSIS":"548.420","COUNTRY_CODE":"US","RA_OF_ASC_NODE":"296.7099"},{"MEAN_MOTION_DDOT":"0.0000000000000","APOAPSIS":"548.486","COUNTRY_CODE":"US","RA_OF_ASC_NODE":"296.7985","ECCENTRICITY":"0.00018070","INCLINATION":"53.0548","MEAN_ANOMALY":"295.9302","EPOCH":"2022-01-24T22:03:08.879328","MEAN_MOTION":"15.06393179","SEMIMAJOR_AXIS":"6925.369","LAUNCH_DATE":"2021-02-04","MEAN_MOTION_DOT":"-0.00000388","OBJECT_TYPE":"PAYLOAD","TLE_LINE1":"1 47583U 21009AM  22024.91885277 -.00000388  00000-0 -71632-5 0  9991","SITE":"AFETR","NORAD_CAT_ID":"47583","MEAN_ELEMENT_THEORY":"SGP4","OBJECT_ID":"2021-009AM","PERIAPSIS":"545.983","ARG_OF_PERICENTER":"64.1873","PERIOD":"95.593","OBJECT_NAME":"STARLINK-1987","DECAY_DATE":null,"TLE_LINE2":"2 47583  53.0548 296.7985 0001807  64.1873 295.9302 15.06393179 53995","CLASSIFICATION_TYPE":"U","ELEMENT_SET_NO":"999","EPHEMERIS_TYPE":"0","BSTAR":"-0.00000716320000","CENTER_NAME":"EARTH","REV_AT_EPOCH":"5399","REF_FRAME":"TEME","FILE":"3282614","TIME_SYSTEM":"UTC","RCS_SIZE":"LARGE","GP_ID":"194570757"},{"PERIAPSIS":"278.139","OBJECT_ID":"2021-009AN","PERIOD":"90.144","ARG_OF_PERICENTER":"354.3163","DECAY_DATE":null,"OBJECT_NAME":"STARLINK-1988","ELEMENT_SET_NO":"999","CLASSIFICATION_TYPE":"U","EPHEMERIS_TYPE":"0","TLE_LINE2":"2 47584  53.0465 186.3254 0005105 354.3163   5.7807 15.97435473 55531","TIME_SYSTEM":"UTC","FILE":"3282614","BSTAR":"0.00270840000000","CENTER_NAME":"EARTH","REF_FRAME":"TEME","REV_AT_EPOCH":"5553","GP_ID":"194571500","RCS_SIZE":"LARGE","MEAN_MOTION_DDOT":"0.0007469200000","COUNTRY_CODE":"US","RA_OF_ASC_NODE":"186.3254","APOAPSIS":"284.939","MEAN_ANOMALY":"5.7807","INCLINATION":"53.0465","ECCENTRICITY":"0.00051050","MEAN_MOTION":"15.97435473","EPOCH":"2022-01-24T20:15:46.074528","MEAN_MOTION_DOT":"0.01218377","LAUNCH_DATE":"2021-02-04","SEMIMAJOR_AXIS":"6659.674","TLE_LINE1":"1 47584U 21009AN  22024.84428327  .01218377  74692-3  27084-2 0  9991","SITE":"AFETR","OBJECT_TYPE":"PAYLOAD","NORAD_CAT_ID":"47584","MEAN_ELEMENT_THEORY":"SGP4"},{"APOAPSIS":"547.892","COUNTRY_CODE":"US","RA_OF_ASC_NODE":"297.5741","MEAN_MOTION_DDOT":"0.0000000000000","EPOCH":"2022-01-24T17:53:39.819264","MEAN_MOTION":"15.06394673","ECCENTRICITY":"0.00009560","INCLINATION":"53.0552","MEAN_ANOMALY":"63.2227","TLE_LINE1":"1 47585U 21009AP  22024.74559976 -.00002259  00000-0 -13285-3 0  9995","OBJECT_TYPE":"PAYLOAD","SITE":"AFETR","SEMIMAJOR_AXIS":"6925.365","LAUNCH_DATE":"2021-02-04","MEAN_MOTION_DOT":"-0.00002259","MEAN_ELEMENT_THEORY":"SGP4","NORAD_CAT_ID":"47585","ARG_OF_PERICENTER":"296.8664","PERIOD":"95.592","OBJECT_ID":"2021-009AP","PERIAPSIS":"546.568","OBJECT_NAME":"STARLINK-1989","DECAY_DATE":null,"REF_FRAME":"TEME","REV_AT_EPOCH":"5396","BSTAR":"-0.00013285000000","CENTER_NAME":"EARTH","TIME_SYSTEM":"UTC","FILE":"3282614","TLE_LINE2":"2 47585  53.0552 297.5741 0000956 296.8664  63.2227 15.06394673 53966","ELEMENT_SET_NO":"999","CLASSIFICATION_TYPE":"U","EPHEMERIS_TYPE":"0","RCS_SIZE":"LARGE","GP_ID":"194569756"},{"RCS_SIZE":"LARGE","GP_ID":"194532780","REV_AT_EPOCH":"5360","REF_FRAME":"TEME","BSTAR":"0.00009351800000","CENTER_NAME":"EARTH","FILE":"3281820","TIME_SYSTEM":"UTC","TLE_LINE2":"2 47586  53.0556 320.0297 0001699  63.8790 296.2374 15.06398311 53601","EPHEMERIS_TYPE":"0","ELEMENT_SET_NO":"999","CLASSIFICATION_TYPE":"U","OBJECT_NAME":"STARLINK-1990","DECAY_DATE":null,"ARG_OF_PERICENTER":"63.8790","PERIOD":"95.592","OBJECT_ID":"2021-009AQ","PERIAPSIS":"546.042","MEAN_ELEMENT_THEORY":"SGP4","NORAD_CAT_ID":"47586","TLE_LINE1":"1 47586U 21009AQ  22024.19825009  .00001112  00000-0  93518-4 0  9991","OBJECT_TYPE":"PAYLOAD","SITE":"AFETR","LAUNCH_DATE":"2021-02-04","SEMIMAJOR_AXIS":"6925.354","MEAN_MOTION_DOT":"0.00001112","EPOCH":"2022-01-24T04:45:28.807776","MEAN_MOTION":"15.06398311","ECCENTRICITY":"0.00016990","INCLINATION":"53.0556","MEAN_ANOMALY":"296.2374","APOAPSIS":"548.395","COUNTRY_CODE":"US","RA_OF_ASC_NODE":"320.0297","MEAN_MOTION_DDOT":"0.0000000000000"},{"GP_ID":"194571257","RCS_SIZE":"LARGE","ELEMENT_SET_NO":"999","EPHEMERIS_TYPE":"0","CLASSIFICATION_TYPE":"U","TLE_LINE2":"2 47587  53.0562 286.7855 0001924  68.5887 291.5307 15.06397549 54132","TIME_SYSTEM":"UTC","FILE":"3282614","REV_AT_EPOCH":"5413","REF_FRAME":"TEME","CENTER_NAME":"EARTH","BSTAR":"0.00006006300000","DECAY_DATE":null,"OBJECT_NAME":"STARLINK-1991","PERIAPSIS":"545.889","OBJECT_ID":"2021-009AR","PERIOD":"95.592","ARG_OF_PERICENTER":"68.5887","NORAD_CAT_ID":"47587","MEAN_ELEMENT_THEORY":"SGP4","MEAN_MOTION_DOT":"0.00000613","SEMIMAJOR_AXIS":"6925.356","LAUNCH_DATE":"2021-02-04","OBJECT_TYPE":"PAYLOAD","TLE_LINE1":"1 47587U 21009AR  22024.92346097  .00000613  00000-0  60063-4 0  9992","SITE":"AFETR","INCLINATION":"53.0562","MEAN_ANOMALY":"291.5307","ECCENTRICITY":"0.00019240","MEAN_MOTION":"15.06397549","EPOCH":"2022-01-24T22:09:47.027808","MEAN_MOTION_DDOT":"0.0000000000000","COUNTRY_CODE":"US","RA_OF_ASC_NODE":"286.7855","APOAPSIS":"548.554"},{"MEAN_ELEMENT_THEORY":"SGP4","NORAD_CAT_ID":"47588","OBJECT_TYPE":"PAYLOAD","TLE_LINE1":"1 47588U 21009AS  22024.91515299  .00000685  00000-0  64927-4 0  9996","SITE":"AFETR","MEAN_MOTION_DOT":"0.00000685","LAUNCH_DATE":"2021-02-04","SEMIMAJOR_AXIS":"6925.365","MEAN_MOTION":"15.06394559","EPOCH":"2022-01-24T21:57:49.218336","INCLINATION":"53.0535","MEAN_ANOMALY":"293.9483","ECCENTRICITY":"0.00017940","RA_OF_ASC_NODE":"296.8161","COUNTRY_CODE":"US","APOAPSIS":"548.473","MEAN_MOTION_DDOT":"0.0000000000000","GP_ID":"194571001","RCS_SIZE":"LARGE","TIME_SYSTEM":"UTC","FILE":"3282614","CENTER_NAME":"EARTH","BSTAR":"0.00006492700000","REV_AT_EPOCH":"5399","REF_FRAME":"TEME","ELEMENT_SET_NO":"999","EPHEMERIS_TYPE":"0","CLASSIFICATION_TYPE":"U","TLE_LINE2":"2 47588  53.0535 296.8161 0001794  66.1694 293.9483 15.06394559 53992","DECAY_DATE":null,"OBJECT_NAME":"STARLINK-1993","PERIOD":"95.592","ARG_OF_PERICENTER":"66.1694","PERIAPSIS":"545.988","OBJECT_ID":"2021-009AS"},{"APOAPSIS":"548.439","COUNTRY_CODE":"US","RA_OF_ASC_NODE":"296.7378","MEAN_MOTION_DDOT":"0.0000000000000","EPOCH":"2022-01-24T22:24:22.619232","MEAN_MOTION":"15.06403848","ECCENTRICITY":"0.00017870","MEAN_ANOMALY":"295.4408","INCLINATION":"53.0551","TLE_LINE1":"1 47589U 21009AT  22024.93359513  .00000577  00000-0  57641-4 0  9999","SITE":"AFETR","OBJECT_TYPE":"PAYLOAD","LAUNCH_DATE":"2021-02-04","SEMIMAJOR_AXIS":"6925.337","MEAN_MOTION_DOT":"0.00000577","MEAN_ELEMENT_THEORY":"SGP4","NORAD_CAT_ID":"47589","ARG_OF_PERICENTER":"64.6766","PERIOD":"95.592","OBJECT_ID":"2021-009AT","PERIAPSIS":"545.964","OBJECT_NAME":"STARLINK-1994","DECAY_DATE":null,"REV_AT_EPOCH":"5399","REF_FRAME":"TEME","BSTAR":"0.00005764100000","CENTER_NAME":"EARTH","FILE":"3282614","TIME_SYSTEM":"UTC","TLE_LINE2":"2 47589  53.0551 296.7378 0001787  64.6766 295.4408 15.06403848 53991","EPHEMERIS_TYPE":"0","ELEMENT_SET_NO":"999","CLASSIFICATION_TYPE":"U","RCS_SIZE":"LARGE","GP_ID":"194570256"}];
